TIANZHOU-7              
1 58811U 24013A   24046.45868983  .00046960  00000+0  48484-3 0  9995
2 58811  41.4680 112.9988 0006898  19.2986 340.8114 15.63928025159885
CZ-7 DEB                
1 58813U 24013C   24018.11402078 -.00002294  72670-5  00000+0 0  9997
2 58813  41.8298 285.9373 0234014 181.6233 328.2070 15.73710950    93
CZ-7 DEB                
1 58814U 24013D   24018.11444661 -.00002240  70950-5  00000+0 0  9992
2 58814  41.6413 286.0086 0240306 187.1577 323.2676 15.72861586    84
DALIAN-1 LIANLI         
1 58816U 23063C   24047.20112946  .00221854  00000+0  15573-2 0  9998
2 58816  41.4671 107.2037 0012422  27.5033 332.6466 15.72596807  4480
SORAYA                  
1 58817U 24015A   24047.15625658  .00000399  00000+0  15390-3 0  9997
2 58817  64.5143  34.7003 0010955 259.7969 100.1881 14.41918879  3888
QAEM 100 R/B            
1 58818U 24015B   24047.19954204  .00000631  00000+0  21842-3 0  9992
2 58818  64.5035  34.3666 0012679 291.9276  68.0461 14.43319607  3897
QAEM 100 DEB            
1 58819U 24015C   24028.55774234  .00054227  00000+0  15623-1 0  9993
2 58819  64.4782  88.5570 0010930 314.2129  45.8058 14.44281846  1162
2024-016A               
1 58820U 24016A   24047.17919313  .00017326  00000+0  10148-2 0  9991
2 58820  97.5205 123.1352 0014361 197.7584 162.3146 15.11786320  3635
2024-016B               
1 58821U 24016B   24047.18046187  .00012401  00000+0  73190-3 0  9999
2 58821  97.5204 123.1328 0014201 197.4635 162.6108 15.11591356  3628
2024-016C               
1 58822U 24016C   24047.18032274  .00010775  00000+0  63703-3 0  9993
2 58822  97.5195 123.1304 0014496 197.4772 162.5961 15.11562118  3620
2024-016D               
1 58823U 24016D   24047.17759306  .00010185  00000+0  59986-3 0  9998
2 58823  97.5170 123.1263 0014381 201.3201 158.7432 15.11714847  3621
2024-016E               
1 58824U 24016E   24047.18373661  .00087039  42504-5  63144-3 0  9990
2 58824  97.6638 125.1781 0179327 297.1785  61.1286 15.54868162  3712
2024-016F               
1 58825U 24016F   24047.17936523  .00016612  00000+0  97450-3 0  9997
2 58825  97.5205 123.1343 0013995 198.1584 161.9148 15.11744225  3553
STARLINK-31233          
1 58826U 24017A   24046.08642411  .00004184  00000+0  10000-3 0  9995
2 58826  53.1588 112.5706 0002858 124.7916 326.3386 15.43819589  4622
STARLINK-31271          
1 58827U 24017B   24045.03341269  .00069103  00000+0  17458-2 0  9992
2 58827  53.1587 117.5330 0001038  35.5770 324.5304 15.39200032  4404
STARLINK-31222          
1 58828U 24017C   24047.25001157 -.01555084  00000+0 -59287-1 0  9994
2 58828  53.1600 107.1971 0001068 107.5955 247.4730 15.29232110  4750
STARLINK-31258          
1 58829U 24017D   24046.91667824 -.02209785  00000+0 -76467-1 0  9990
2 58829  53.1598 108.7100 0001059  83.7560 252.0917 15.32949661  4765
STARLINK-31253          
1 58830U 24017E   24043.80532395 -.00610220  00000+0 -13962-1 0  9990
2 58830  53.1596 123.3724 0001017 135.5574 224.5514 15.44590683  4211
STARLINK-31232          
1 58831U 24017F   24046.91667824 -.02210043  00000+0 -71766-1 0  9999
2 58831  53.1598 108.6768 0001096  83.4656 269.1629 15.34938130  4761
STARLINK-31263          
1 58832U 24017G   24043.80506615 -.00267456  00000+0 -59507-2 0  9993
2 58832  53.1595 123.3715 0001587  73.1896 286.9285 15.44094281  4320
STARLINK-31175          
1 58833U 24017H   24045.00502416  .00132374  00000+0  28247-2 0  9998
2 58833  53.1593 117.3471 0002383  35.5810 324.5355 15.43942989  4406
STARLINK-31171          
1 58834U 24017J   24045.02438311  .00061369  00000+0  13259-2 0  9995
2 58834  53.1587 117.4748 0001014 138.4163 221.6921 15.43958458  4406
STARLINK-31246          
1 58835U 24017K   24046.91667824 -.02212847  00000+0 -63127-1 0  9999
2 58835  53.1594 108.6275 0001065  73.5786 303.5419 15.38916811  4760
STARLINK-31251          
1 58836U 24017L   24043.80431375 -.00276309  00000+0 -61601-2 0  9992
2 58836  53.1598 123.3664 0001794  60.6515 299.4671 15.44068969  4321
STARLINK-31172          
1 58837U 24017M   24047.13090091  .00082209  00000+0  11411-2 0  9995
2 58837  53.1596 106.4332 0001263 306.2445  53.8450 15.56347592  4755
STARLINK-31249          
1 58838U 24017N   24046.91667824 -.02215851  00000+0 -59007-1 0  9992
2 58838  53.1596 108.6101 0001055  70.9649 314.8981 15.40991856  4765
STARLINK-31250          
1 58839U 24017P   24046.91667824 -.02217261  00000+0 -55377-1 0  9996
2 58839  53.1592 108.6026 0001050  73.9240 315.5966 15.42896501  4723
STARLINK-31248          
1 58840U 24017Q   24046.97575817  .00019741  00000+0  43619-3 0  9991
2 58840  53.1588 108.3185 0001531  84.8654 275.2527 15.43875517  4828
STARLINK-31236          
1 58841U 24017R   24046.19906488 -.00003501  00000+0 -66883-4 0  9996
2 58841  53.1574 112.0022 0001575  74.6552 285.4628 15.43866536  4587
STARLINK-31228          
1 58842U 24017S   24043.86827872 -.00143248  00000+0 -31428-2 0  9995
2 58842  53.1600 123.0501 0001322 102.5283 257.5872 15.43998221  4223
