OBJECT_NAME,OBJECT_ID,EPOCH,MEAN_MOTION,ECCENTRICITY,INCLINATION,RA_OF_ASC_NODE,ARG_OF_PERICENTER,MEAN_ANOMALY,EPHEMERIS_TYPE,CLASSIFICATION_TYPE,NORAD_CAT_ID,ELEMENT_SET_NO,REV_AT_EPOCH,BSTAR,MEAN_MOTION_DOT,MEAN_MOTION_DDOT
TIANZHOU-7,2024-013A,2024-02-15T11:00:30.801312,15.63928025,0.0006898,41.468,112.9988,19.2986,340.8114,0,U,58811,999,15988,0.00048484,0.0004696,0
CZ-7 DEB,2024-013C,2024-01-18T02:44:11.395392,15.7371095,0.0234014,41.8298,285.9373,181.6233,328.207,0,U,58813,999,9,0,-2.294e-05,7.267e-06
CZ-7 DEB,2024-013D,2024-01-18T02:44:48.187104,15.72861586,0.0240306,41.6413,286.0086,187.1577,323.2676,0,U,58814,999,8,0,-2.24e-05,7.095e-06
DALIAN-1 LIANLI,2023-063C,2024-02-16T04:49:37.585344,15.72596807,0.0012422,41.4671,107.2037,27.5033,332.6466,0,U,58816,999,448,0.0015573,0.00221854,0
SORAYA,2024-015A,2024-02-16T03:45:00.568512,14.41918879,0.0010955,64.5143,34.7003,259.7969,100.1881,0,U,58817,999,388,0.0001539,3.99e-06,0
QAEM 100 R/B,2024-015B,2024-02-16T04:47:20.432256,14.43319607,0.0012679,64.5035,34.3666,291.9276,68.0461,0,U,58818,999,389,0.00021842,6.31e-06,0
QAEM 100 DEB,2024-015C,2024-01-28T13:23:08.938176,14.44281846,0.001093,64.4782,88.557,314.2129,45.8058,0,U,58819,999,116,0.015623,0.00054227,0
2024-016A,2024-016A,2024-02-16T04:18:02.286432,15.1178632,0.0014361,97.5205,123.1352,197.7584,162.3146,0,U,58820,999,363,0.0010148,0.00017326,0
2024-016B,2024-016B,2024-02-16T04:19:51.905568,15.11591356,0.0014201,97.5204,123.1328,197.4635,162.6108,0,U,58821,999,362,0.0007319,0.00012401,0
2024-016C,2024-016C,2024-02-16T04:19:39.884736,15.11562118,0.0014496,97.5195,123.1304,197.4772,162.5961,0,U,58822,999,362,0.00063703,0.00010775,0
2024-016D,2024-016D,2024-02-16T04:15:44.040384,15.11714847,0.0014381,97.517,123.1263,201.3201,158.7432,0,U,58823,999,362,0.00059986,0.00010185,0
2024-016E,2024-016E,2024-02-16T04:24:34.843104,15.54868162,0.0179327,97.6638,125.1781,297.1785,61.1286,0,U,58824,999,371,0.00063144,0.00087039,4.2504e-06
2024-016F,2024-016F,2024-02-16T04:18:17.155872,15.11744225,0.0013995,97.5205,123.1343,198.1584,161.9148,0,U,58825,999,355,0.0009745,0.00016612,0
STARLINK-31233,2024-017A,2024-02-15T02:04:27.043104,15.43819589,0.0002858,53.1588,112.5706,124.7916,326.3386,0,U,58826,999,462,0.0001,4.184e-05,0
STARLINK-31271,2024-017B,2024-02-14T00:48:06.856416,15.39200032,0.0001038,53.1587,117.533,35.577,324.5304,0,U,58827,999,440,0.0017458,0.00069103,0
STARLINK-31222,2024-017C,2024-02-16T06:00:00.999648,15.2923211,0.0001068,53.16,107.1971,107.5955,247.473,0,U,58828,999,475,-0.059287,-0.01555084,0
STARLINK-31258,2024-017D,2024-02-15T22:00:00.999936,15.32949661,0.0001059,53.1598,108.71,83.756,252.0917,0,U,58829,999,476,-0.076467,-0.02209785,0
STARLINK-31253,2024-017E,2024-02-12T19:19:39.989280,15.44590683,0.0001017,53.1596,123.3724,135.5574,224.5514,0,U,58830,999,421,-0.013962,-0.0061022,0
STARLINK-31232,2024-017F,2024-02-15T22:00:00.999936,15.3493813,0.0001096,53.1598,108.6768,83.4656,269.1629,0,U,58831,999,476,-0.071766,-0.02210043,0
STARLINK-31263,2024-017G,2024-02-12T19:19:17.715360,15.44094281,0.0001587,53.1595,123.3715,73.1896,286.9285,0,U,58832,999,432,-0.0059507,-0.00267456,0
STARLINK-31175,2024-017H,2024-02-14T00:07:14.087424,15.43942989,0.0002383,53.1593,117.3471,35.581,324.5355,0,U,58833,999,440,0.0028247,0.00132374,0
STARLINK-31171,2024-017J,2024-02-14T00:35:06.700704,15.43958458,0.0001014,53.1587,117.4748,138.4163,221.6921,0,U,58834,999,440,0.0013259,0.00061369,0
STARLINK-31246,2024-017K,2024-02-15T22:00:00.999936,15.38916811,0.0001065,53.1594,108.6275,73.5786,303.5419,0,U,58835,999,476,-0.063127,-0.02212847,0
STARLINK-31251,2024-017L,2024-02-12T19:18:12.708000,15.44068969,0.0001794,53.1598,123.3664,60.6515,299.4671,0,U,58836,999,432,-0.0061601,-0.00276309,0
STARLINK-31172,2024-017M,2024-02-16T03:08:29.838624,15.56347592,0.0001263,53.1596,106.4332,306.2445,53.845,0,U,58837,999,475,0.0011411,0.00082209,0
STARLINK-31249,2024-017N,2024-02-15T22:00:00.999936,15.40991856,0.0001055,53.1596,108.6101,70.9649,314.8981,0,U,58838,999,476,-0.059007,-0.02215851,0
STARLINK-31250,2024-017P,2024-02-15T22:00:00.999936,15.42896501,0.000105,53.1592,108.6026,73.924,315.5966,0,U,58839,999,472,-0.055377,-0.02217261,0
STARLINK-31248,2024-017Q,2024-02-15T23:25:05.505888,15.43875517,0.0001531,53.1588,108.3185,84.8654,275.2527,0,U,58840,999,482,0.00043619,0.00019741,0
STARLINK-31236,2024-017R,2024-02-15T04:46:39.205632,15.43866536,0.0001575,53.1574,112.0022,74.6552,285.4628,0,U,58841,999,458,-6.6883e-05,-3.501e-05,0
STARLINK-31228,2024-017S,2024-02-12T20:50:19.281408,15.43998221,0.0001322,53.16,123.0501,102.5283,257.5872,0,U,58842,999,422,-0.0031428,-0.00143248,0
